NORAD_CAT_ID,OBJECT_NAME,OBJECT_TYPE,EPOCH,MEAN_MOTION,ECCENTRICITY,INCLINATION,RA_OF_ASC_NODE,ARG_OF_PERICENTER,MEAN_ANOMALY,BSTAR,MEAN_MOTION_DOT,MEAN_MOTION_DDOT,TLE_LINE0,TLE_LINE1,TLE_LINE2,SEMIMAJOR_AXIS,PERIOD,APOGEE,PERIGEE,DECAYED
55312.0,STARLINK-5296,PAYLOAD,2024-04-13 20:23:49,14.98324163,0.0002844,69.9996,316.2159,261.1775,98.9062,1.132e-05,4.2e-07,0.0,0 STARLINK-5296,1 55312U 23010AV  24104.84987295  .00000042  00000-0  11320-4 0  9992,2 55312  69.9996 316.2159 0002844 261.1775  98.9062 14.98324163 70563,6950.211,96.107,574.053,570.099,0.0
55312.0,STARLINK-5296,PAYLOAD,2024-04-13 23:36:05,14.98324567,0.0002809,69.999,315.8784,264.1306,95.9533,-2.369e-05,-3.76e-06,0.0,0 STARLINK-5296,1 55312U 23010AV  24104.98339432 -.00000376  00000-0 -23690-4 0  9996,2 55312  69.9990 315.8784 0002809 264.1306  95.9533 14.98324567 69397,6950.21,96.107,574.027,570.122,0.0
55312.0,STARLINK-5296,PAYLOAD,2024-04-14 20:25:49,14.98334049,0.0003012,69.9986,313.6892,266.5944,93.4871,4.7508e-05,4.74e-06,0.0,0 STARLINK-5296,1 55312U 23010AV  24105.85126689  .00000474  00000-0  47508-4 0  9992,2 55312  69.9986 313.6892 0003012 266.5944  93.4871 14.98334049 69528,6950.18,96.107,574.139,569.952,0.0
55312.0,STARLINK-5296,PAYLOAD,2024-04-14 22:01:57,14.98335114,0.0002986,69.9986,313.5209,265.9486,94.1332,6.0966e-05,6.35e-06,0.0,0 STARLINK-5296,1 55312U 23010AV  24105.91802570  .00000635  00000-0  60966-4 0  9991,2 55312  69.9986 313.5209 0002986 265.9486  94.1332 14.98335114 70720,6950.177,96.107,574.117,569.967,0.0
55312.0,STARLINK-5296,PAYLOAD,2024-04-15 14:03:18,14.98331767,0.0003096,69.9984,311.8384,265.5584,94.5221,0.00011396,1.267e-05,0.0,0 STARLINK-5296,1 55312U 23010AV  24106.58562570  .00001267  00000-0  11396-3 0  9992,2 55312  69.9984 311.8384 0003096 265.5584  94.5221 14.98331767 70823,6950.187,96.107,574.204,569.901,0.0
55312.0,STARLINK-5296,PAYLOAD,2024-04-15 20:27:50,14.98332623,0.0003099,69.9983,311.165,265.5481,94.5324,0.00011642,1.296e-05,0.0,0 STARLINK-5296,1 55312U 23010AV  24106.85266506  .00001296  00000-0  11642-3 0  9998,2 55312  69.9983 311.1650 0003099 265.5481  94.5324 14.98332623 69677,6950.185,96.107,574.204,569.896,0.0
55312.0,STARLINK-5296,PAYLOAD,2024-04-16 14:05:19,14.98334515,0.0003051,69.9986,309.3129,272.6283,87.4527,2.8987e-05,2.53e-06,0.0,0 STARLINK-5296,1 55312U 23010AV  24107.58702617  .00000253  00000-0  28987-4 0  9990,2 55312  69.9986 309.3129 0003051 272.6283  87.4527 14.98334515 70970,6950.179,96.107,574.164,569.923,0.0
55312.0,STARLINK-5296,PAYLOAD,2024-04-16 20:29:50,14.98338282,0.0003007,69.9984,308.6395,272.8912,87.1903,7.6732e-05,8.23e-06,0.0,0 STARLINK-5296,1 55312U 23010AV  24107.85406177  .00000823  00000-0  76732-4 0  9996,2 55312  69.9984 308.6395 0003007 272.8912  87.1903 14.98338282 69829,6950.167,96.106,574.122,569.942,0.0
55312.0,STARLINK-5296,PAYLOAD,2024-04-16 22:05:58,14.98339554,0.0002985,69.9983,308.4711,273.0008,87.081,9.1266e-05,9.96e-06,0.0,0 STARLINK-5296,1 55312U 23010AV  24107.92082032  .00000996  00000-0  91266-4 0  9994,2 55312  69.9983 308.4711 0002985 273.0008  87.0810 14.98339554 71025,6950.163,96.106,574.103,569.954,0.0
55312.0,STARLINK-5296,PAYLOAD,2024-04-17 14:07:20,14.98330381,0.0002859,69.9986,306.7878,274.2462,85.837,-3.9658e-05,-5.66e-06,0.0,0 STARLINK-5296,1 55312U 23010AV  24108.58842783 -.00000566  00000-0 -39658-4 0  9996,2 55312  69.9986 306.7878 0002859 274.2462  85.8370 14.98330381 71127,6950.192,96.107,574.044,570.07,0.0
55312.0,STARLINK-5296,PAYLOAD,2024-04-17 20:31:52,14.98327404,0.00027,69.9988,306.117,265.0546,95.0305,-3.3729e-05,-4.95e-06,0.0,0 STARLINK-5296,1 55312U 23010AV  24108.85546901 -.00000495  00000-0 -33729-4 0  9993,2 55312  69.9988 306.1170 0002700 265.0546  95.0305 14.98327404 69977,6950.201,96.107,573.942,570.189,0.0
55312.0,STARLINK-5296,PAYLOAD,2024-04-18 14:09:20,14.98333012,0.000276,69.9987,304.2647,256.4492,103.6359,2.449e-06,-6.4e-07,0.0,0 STARLINK-5296,1 55312U 23010AV  24109.58982430 -.00000064  00000-0  24490-5 0  9992,2 55312  69.9987 304.2647 0002760 256.4492 103.6359 14.98333012 71277,6950.184,96.107,573.967,570.13,0.0
55312.0,STARLINK-5296,PAYLOAD,2024-04-18 20:33:53,14.983323,0.0002773,69.999,303.5911,256.3402,103.7448,-3.7803e-06,-1.38e-06,0.0,0 STARLINK-5296,1 55312U 23010AV  24109.85686447 -.00000138  00000-0 -37803-5 0  9996,2 55312  69.9990 303.5911 0002773 256.3402 103.7448 14.98332300 70123,6950.186,96.107,573.978,570.123,0.0
55312.0,STARLINK-5296,PAYLOAD,2024-04-19 14:11:21,14.98328519,0.0002892,69.9986,301.738,259.5025,100.5808,8.9997e-05,9.81e-06,0.0,0 STARLINK-5296,1 55312U 23010AV  24110.59122436  .00000981  00000-0  89997-4 0  9996,2 55312  69.9986 301.7380 0002892 259.5025 100.5808 14.98328519 71422,6950.197,96.107,574.072,570.052,0.0
55312.0,STARLINK-5296,PAYLOAD,2024-04-19 20:35:53,14.98333064,0.0002792,69.9987,301.065,254.7131,105.372,0.00014251,1.608e-05,0.0,0 STARLINK-5296,1 55312U 23010AV  24110.85826008  .00001608  00000-0  14251-3 0  9998,2 55312  69.9987 301.0650 0002792 254.7131 105.3720 14.98333064 70279,6950.183,96.107,573.989,570.108,0.0
55312.0,STARLINK-5296,PAYLOAD,2024-04-19 22:12:01,14.98335291,0.0002876,69.9982,300.8957,262.9179,97.1653,0.0001609,1.828e-05,0.0,0 STARLINK-5296,1 55312U 23010AV  24110.92501847  .00001828  00000-0  16090-3 0  9994,2 55312  69.9982 300.8957 0002876 262.9179  97.1653 14.98335291 71477,6950.177,96.107,574.04,570.043,0.0
55312.0,STARLINK-5296,PAYLOAD,2024-04-20 12:37:15,14.98329502,0.0001733,70.0006,299.3836,311.7229,48.3781,8.5308e-05,9.25e-06,0.0,0 STARLINK-5296,1 55312U 23010AV  24111.52587129  .00000925  00000-0  85308-4 0  9994,2 55312  70.0006 299.3836 0001733 311.7229  48.3781 14.98329502 70371,6950.194,96.107,573.264,570.855,0.0
55312.0,STARLINK-5296,PAYLOAD,2024-04-20 14:13:23,14.98318307,0.0003485,69.9983,299.2136,273.5833,86.4928,-5.5731e-05,-7.58e-06,0.0,0 STARLINK-5296,1 55312U 23010AV  24111.59263771 -.00000758  00000-0 -55731-4 0  9998,2 55312  69.9983 299.2136 0003485 273.5833  86.4928 14.98318307 71576,6950.229,96.108,574.516,569.672,0.0
55312.0,STARLINK-5296,PAYLOAD,2024-04-20 20:37:57,14.98299035,0.0002767,69.999,298.5404,256.2959,103.7892,-0.00026754,-3.281e-05,0.0,0 STARLINK-5296,1 55312U 23010AV  24111.85969788 -.00003281  00000-0 -26754-3 0  9994,2 55312  69.9990 298.5404 0002767 256.2959 103.7892 14.98299035 70425,6950.289,96.109,574.077,570.231,0.0
55312.0,STARLINK-5296,PAYLOAD,2024-04-21 14:15:24,14.98327503,0.000259,70.0002,296.6892,257.0782,103.0088,8.1277e-05,8.77e-06,0.0,0 STARLINK-5296,1 55312U 23010AV  24112.59403773  .00000877  00000-0  81277-4 0  9991,2 55312  70.0002 296.6892 0002590 257.0782 103.0088 14.98327503 71725,6950.201,96.107,573.866,570.266,0.0
55312.0,STARLINK-5296,PAYLOAD,2024-04-21 20:39:56,14.98334603,0.0002523,69.9999,296.013,266.3942,93.6929,0.00014975,1.694e-05,0.0,0 STARLINK-5296,1 55312U 23010AV  24112.86107256  .00001694  00000-0  14975-3 0  9996,2 55312  69.9999 296.0130 0002523 266.3942  93.6929 14.98334603 70572,6950.179,96.107,573.797,570.29,0.0
55312.0,STARLINK-5296,PAYLOAD,2024-04-21 22:16:04,14.98340615,0.0002785,69.9986,295.8457,261.8622,98.2221,0.00019533,2.239e-05,0.0,0 STARLINK-5296,1 55312U 23010AV  24112.92782695  .00002239  00000-0  19533-3 0  9990,2 55312  69.9986 295.8457 0002785 261.8622  98.2221 14.98340615 71771,6950.16,96.106,573.961,570.089,0.0
55312.0,STARLINK-5296,PAYLOAD,2024-04-22 11:05:08,14.98324929,0.0002739,69.9992,294.4998,266.363,93.7216,0.00051249,6.026e-05,0.0,0 STARLINK-5296,1 55312U 23010AV  24113.46190755  .00006026  00000-0  51249-3 0  9998,2 55312  69.9992 294.4998 0002739 266.3630  93.7216 14.98324929 70662,6950.209,96.107,573.977,570.17,0.0
55312.0,STARLINK-5296,PAYLOAD,2024-04-22 22:18:05,14.98330447,0.0002751,69.9996,293.3215,267.1953,92.8891,0.00050741,5.967e-05,0.0,0 STARLINK-5296,1 55312U 23010AV  24113.92922552  .00005967  00000-0  50741-3 0  9996,2 55312  69.9996 293.3215 0002751 267.1953  92.8891 14.98330447 71928,6950.192,96.107,573.969,570.145,0.0
55312.0,STARLINK-5296,PAYLOAD,2024-04-23 12:43:18,14.98337879,0.0002432,70.0018,291.8076,251.4056,108.6839,4.4398e-05,4.37e-06,0.0,0 STARLINK-5296,1 55312U 23010AV  24114.53006945  .00000437  00000-0  44398-4 0  9992,2 55312  70.0018 291.8076 0002432 251.4056 108.6839 14.98337879 70822,6950.169,96.106,573.724,570.343,0.0
55312.0,STARLINK-5296,PAYLOAD,2024-04-23 14:19:26,14.98336288,0.0002573,70.0012,291.6396,253.587,106.5006,1.1303e-05,4.2e-07,0.0,0 STARLINK-5296,1 55312U 23010AV  24114.59683071  .00000042  00000-0  11303-4 0  9991,2 55312  70.0012 291.6396 0002573 253.5870 106.5006 14.98336288 72022,6950.173,96.107,573.827,570.25,0.0
55312.0,STARLINK-5296,PAYLOAD,2024-04-23 20:43:58,14.98333005,0.0002189,70.0005,290.9658,253.9764,106.1154,-1.2528e-05,-2.42e-06,0.0,0 STARLINK-5296,1 55312U 23010AV  24114.86387190 -.00000242  00000-0 -12528-4 0  9998,2 55312  70.0005 290.9658 0002189 253.9764 106.1154 14.98333005 72064,6950.184,96.107,573.57,570.527,0.0
55312.0,STARLINK-5296,PAYLOAD,2024-04-24 12:45:18,14.98336106,0.0002979,69.9998,289.2821,268.6715,91.4103,-5.8032e-05,-7.85e-06,0.0,0 STARLINK-5296,1 55312U 23010AV  24115.53146644 -.00000785  00000-0 -58032-4 0  9992,2 55312  69.9998 289.2821 0002979 268.6715  91.4103 14.98336106 70974,6950.174,96.107,574.109,569.969,0.0
55312.0,STARLINK-5296,PAYLOAD,2024-04-24 14:21:26,14.98335322,0.0002829,69.9998,289.1136,262.7677,97.316,-5.8021e-05,-7.85e-06,0.0,0 STARLINK-5296,1 55312U 23010AV  24115.59822638 -.00000785  00000-0 -58021-4 0  9990,2 55312  69.9998 289.1136 0002829 262.7677  97.3160 14.98335322 72179,6950.176,96.107,574.008,570.075,0.0
55312.0,STARLINK-5296,PAYLOAD,2024-04-24 20:45:58,14.98334999,0.0002819,70.0005,288.4409,261.478,98.606,-5.8353e-05,-7.89e-06,0.0,0 STARLINK-5296,1 55312U 23010AV  24115.86526558 -.00000789  00000-0 -58353-4 0  9994,2 55312  70.0005 288.4409 0002819 261.4780  98.6060 14.98334999 72213,6950.177,96.107,574.002,570.083,0.0
